{
  "type": "FeatureCollection",
  "name": "l324-spatial-blocks-v1",
  "crs": {
    "type": "name",
    "properties": {
      "name": "EPSG:3067"
    }
  },
  "features": [
    {
      "type": "Feature",
      "properties": {
        "split": "val",
        "map_sheet": "L3243D"
      },
      "geometry": {
        "type": "Polygon",
        "coordinates": [
          [
            [
              199488.0,
              6744512.0
            ],
            [
              194512.0,
              6744512.0
            ],
            [
              194512.0,
              6749488.0
            ],
            [
              199488.0,
              6749488.0
            ],
            [
              199488.0,
              6744512.0
            ]
          ]
        ]
      }
    },
    {
      "type": "Feature",
      "properties": {
        "split": "test",
        "map_sheet": "L3243F"
      },
      "geometry": {
        "type": "Polygon",
        "coordinates": [
          [
            [
              205488.0,
              6744512.0
            ],
            [
              200512.0,
              6744512.0
            ],
            [
              200512.0,
              6749488.0
            ],
            [
              205488.0,
              6749488.0
            ],
            [
              205488.0,
              6744512.0
            ]
          ]
        ]
      }
    },
    {
      "type": "Feature",
      "properties": {
        "split": "test",
        "map_sheet": "L3243H"
      },
      "geometry": {
        "type": "Polygon",
        "coordinates": [
          [
            [
              211488.0,
              6744512.0
            ],
            [
              206512.0,
              6744512.0
            ],
            [
              206512.0,
              6749488.0
            ],
            [
              211488.0,
              6749488.0
            ],
            [
              211488.0,
              6744512.0
            ]
          ]
        ]
      }
    },
    {
      "type": "Feature",
      "properties": {
        "split": "train",
        "map_sheet": "L3244C"
      },
      "geometry": {
        "type": "Polygon",
        "coordinates": [
          [
            [
              199488.0,
              6750512.0
            ],
            [
              194512.0,
              6750512.0
            ],
            [
              194512.0,
              6755488.0
            ],
            [
              199488.0,
              6755488.0
            ],
            [
              199488.0,
              6750512.0
            ]
          ]
        ]
      }
    },
    {
      "type": "Feature",
      "properties": {
        "split": "train",
        "map_sheet": "L3244H"
      },
      "geometry": {
        "type": "Polygon",
        "coordinates": [
          [
            [
              211488.0,
              6756512.0
            ],
            [
              206512.0,
              6756512.0
            ],
            [
              206512.0,
              6761488.0
            ],
            [
              211488.0,
              6761488.0
            ],
            [
              211488.0,
              6756512.0
            ]
          ]
        ]
      }
    }
  ]
}